SL-3 R/B                
1 13403U 82079B   26024.09905810  .00008508  00000+0  34564-3 0  9998
2 13403  81.1442 245.7104 0024635 319.3987  40.5407 15.24159044370900
SL-14 R/B               
1 13553U 82092B   26024.17421512  .00001107  00000+0  12160-3 0  9996
2 13553  82.5681 183.0237 0021886  89.0598  84.0047 14.86609706322318
SL-3 R/B                
1 13819U 83010B   26024.15320151  .00021062  00000+0  44654-3 0  9992
2 13819  81.1017  56.7918 0016691 197.1579 162.9103 15.44787162351062
SL-3 R/B                
1 14208U 83075B   26024.11489538  .00017757  00000+0  48500-3 0  9997
2 14208  97.6127  27.0561 0023425  33.7276 326.5452 15.37190441323307
COSMOS 1536             
1 14699U 84013A   26023.79488937  .00009355  00000+0  39328-3 0  9992
2 14699  82.5471 152.4405 0015678  81.7418 278.5596 15.23160726265788
SL-14 R/B               
1 14820U 84027B   26023.98039523  .00000970  00000+0  10811-3 0  9997
2 14820  82.5425 286.9492 0019327 118.9389 241.3768 14.85928795240997
SL-8 R/B                
1 15483U 85006B   26023.37210552  .00000607  00000+0  20996-3 0  9999
2 15483  74.0471 344.5321 0019777 270.2213 206.9153 14.37754789147515
SL-12 R/B(2)            
1 15772U 85042D   26024.18685088  .00000238  00000+0  12856-3 0  9996
2 15772  71.1069 181.7460 0035893 198.3697 334.0096 14.21967124108063
SL-14 R/B               
1 15945U 85069B   26024.11337015  .00000935  00000+0  10302-3 0  9992
2 15945  82.5246  66.8614 0018330 344.8503  15.2162 14.86378480166218
SL-16 R/B               
1 16182U 85097B   26023.02651008 -.00000124  00000+0 -38269-4 0  9992
2 16182  71.0003 236.6846 0008974 313.5762 152.8358 14.16590864 80768
SL-14 R/B               
1 16496U 86006B   26023.49631030  .00001427  00000+0  14881-3 0  9993
2 16496  82.5287 302.2673 0078112  63.0251 297.8915 14.86740697142492
COSMOS 1743             
1 16719U 86034A   26023.71486593  .00046196  00000+0  68201-3 0  9996
2 16719  82.5349 120.9030 0005417  99.6150 260.5716 15.55144084173251
