CCSDS_OMM_VERS = 2.0
CREATION_DATE  = 
ORIGINATOR     = 

OBJECT_NAME    = SL-3 R/B
OBJECT_ID      = 1982-079B
CENTER_NAME    = EARTH
REF_FRAME      = TEME
TIME_SYSTEM    = UTC
MEAN_ELEMENT_THEORY = SGP/SGP4

EPOCH          = 2026-01-24T02:22:38.619840
MEAN_MOTION    = 15.24159044
ECCENTRICITY   = .0024635
INCLINATION    = 81.1442
RA_OF_ASC_NODE = 245.7104
ARG_OF_PERICENTER = 319.3987
MEAN_ANOMALY   = 40.5407

EPHEMERIS_TYPE = 0
CLASSIFICATION_TYPE = U
NORAD_CAT_ID   = 13403
ELEMENT_SET_NO = 999
REV_AT_EPOCH   = 37090
BSTAR          = .34564E-3
MEAN_MOTION_DOT = .8508E-4
MEAN_MOTION_DDOT = 0

CCSDS_OMM_VERS = 2.0
CREATION_DATE  = 
ORIGINATOR     = 

OBJECT_NAME    = SL-14 R/B
OBJECT_ID      = 1982-092B
CENTER_NAME    = EARTH
REF_FRAME      = TEME
TIME_SYSTEM    = UTC
MEAN_ELEMENT_THEORY = SGP/SGP4

EPOCH          = 2026-01-24T04:10:52.186368
MEAN_MOTION    = 14.86609706
ECCENTRICITY   = .0021886
INCLINATION    = 82.5681
RA_OF_ASC_NODE = 183.0237
ARG_OF_PERICENTER = 89.0598
MEAN_ANOMALY   = 84.0047

EPHEMERIS_TYPE = 0
CLASSIFICATION_TYPE = U
NORAD_CAT_ID   = 13553
ELEMENT_SET_NO = 999
REV_AT_EPOCH   = 32231
BSTAR          = .1216E-3
MEAN_MOTION_DOT = .1107E-4
MEAN_MOTION_DDOT = 0

CCSDS_OMM_VERS = 2.0
CREATION_DATE  = 
ORIGINATOR     = 

OBJECT_NAME    = SL-3 R/B
OBJECT_ID      = 1983-010B
CENTER_NAME    = EARTH
REF_FRAME      = TEME
TIME_SYSTEM    = UTC
MEAN_ELEMENT_THEORY = SGP/SGP4

EPOCH          = 2026-01-24T03:40:36.610464
MEAN_MOTION    = 15.44787162
ECCENTRICITY   = .0016691
INCLINATION    = 81.1017
RA_OF_ASC_NODE = 56.7918
ARG_OF_PERICENTER = 197.1579
MEAN_ANOMALY   = 162.9103

EPHEMERIS_TYPE = 0
CLASSIFICATION_TYPE = U
NORAD_CAT_ID   = 13819
ELEMENT_SET_NO = 999
REV_AT_EPOCH   = 35106
BSTAR          = .44654E-3
MEAN_MOTION_DOT = .21062E-3
MEAN_MOTION_DDOT = 0

CCSDS_OMM_VERS = 2.0
CREATION_DATE  = 
ORIGINATOR     = 

OBJECT_NAME    = SL-3 R/B
OBJECT_ID      = 1983-075B
CENTER_NAME    = EARTH
REF_FRAME      = TEME
TIME_SYSTEM    = UTC
MEAN_ELEMENT_THEORY = SGP/SGP4

EPOCH          = 2026-01-24T02:45:26.960832
MEAN_MOTION    = 15.37190441
ECCENTRICITY   = .0023425
INCLINATION    = 97.6127
RA_OF_ASC_NODE = 27.0561
ARG_OF_PERICENTER = 33.7276
MEAN_ANOMALY   = 326.5452

EPHEMERIS_TYPE = 0
CLASSIFICATION_TYPE = U
NORAD_CAT_ID   = 14208
ELEMENT_SET_NO = 999
REV_AT_EPOCH   = 32330
BSTAR          = .485E-3
MEAN_MOTION_DOT = .17757E-3
MEAN_MOTION_DDOT = 0

CCSDS_OMM_VERS = 2.0
CREATION_DATE  = 
ORIGINATOR     = 

OBJECT_NAME    = COSMOS 1536
OBJECT_ID      = 1984-013A
CENTER_NAME    = EARTH
REF_FRAME      = TEME
TIME_SYSTEM    = UTC
MEAN_ELEMENT_THEORY = SGP/SGP4

EPOCH          = 2026-01-23T19:04:38.441568
MEAN_MOTION    = 15.23160726
ECCENTRICITY   = .0015678
INCLINATION    = 82.5471
RA_OF_ASC_NODE = 152.4405
ARG_OF_PERICENTER = 81.7418
MEAN_ANOMALY   = 278.5596

EPHEMERIS_TYPE = 0
CLASSIFICATION_TYPE = U
NORAD_CAT_ID   = 14699
ELEMENT_SET_NO = 999
REV_AT_EPOCH   = 26578
BSTAR          = .39327703E-3
MEAN_MOTION_DOT = .9355E-4
MEAN_MOTION_DDOT = 0

CCSDS_OMM_VERS = 2.0
CREATION_DATE  = 
ORIGINATOR     = 

OBJECT_NAME    = SL-14 R/B
OBJECT_ID      = 1984-027B
CENTER_NAME    = EARTH
REF_FRAME      = TEME
TIME_SYSTEM    = UTC
MEAN_ELEMENT_THEORY = SGP/SGP4

EPOCH          = 2026-01-23T23:31:46.147872
MEAN_MOTION    = 14.85928795
ECCENTRICITY   = .0019327
INCLINATION    = 82.5425
RA_OF_ASC_NODE = 286.9492
ARG_OF_PERICENTER = 118.9389
MEAN_ANOMALY   = 241.3768

EPHEMERIS_TYPE = 0
CLASSIFICATION_TYPE = U
NORAD_CAT_ID   = 14820
ELEMENT_SET_NO = 999
REV_AT_EPOCH   = 24099
BSTAR          = .10811E-3
MEAN_MOTION_DOT = .97E-5
MEAN_MOTION_DDOT = 0

CCSDS_OMM_VERS = 2.0
CREATION_DATE  = 
ORIGINATOR     = 

OBJECT_NAME    = SL-8 R/B
OBJECT_ID      = 1985-006B
CENTER_NAME    = EARTH
REF_FRAME      = TEME
TIME_SYSTEM    = UTC
MEAN_ELEMENT_THEORY = SGP/SGP4

EPOCH          = 2026-01-23T08:55:49.916928
MEAN_MOTION    = 14.37754789
ECCENTRICITY   = .00197774
INCLINATION    = 74.0471
RA_OF_ASC_NODE = 344.5321
ARG_OF_PERICENTER = 270.2213
MEAN_ANOMALY   = 206.9153

EPHEMERIS_TYPE = 0
CLASSIFICATION_TYPE = U
NORAD_CAT_ID   = 15483
ELEMENT_SET_NO = 999
REV_AT_EPOCH   = 14751
BSTAR          = .20995637E-3
MEAN_MOTION_DOT = .607E-5
MEAN_MOTION_DDOT = 0

CCSDS_OMM_VERS = 2.0
CREATION_DATE  = 
ORIGINATOR     = 

OBJECT_NAME    = SL-12 R/B(2)
OBJECT_ID      = 1985-042D
CENTER_NAME    = EARTH
REF_FRAME      = TEME
TIME_SYSTEM    = UTC
MEAN_ELEMENT_THEORY = SGP/SGP4

EPOCH          = 2026-01-24T04:29:03.916032
MEAN_MOTION    = 14.21967124
ECCENTRICITY   = .0035893
INCLINATION    = 71.1069
RA_OF_ASC_NODE = 181.7460
ARG_OF_PERICENTER = 198.3697
MEAN_ANOMALY   = 334.0096

EPHEMERIS_TYPE = 0
CLASSIFICATION_TYPE = U
NORAD_CAT_ID   = 15772
ELEMENT_SET_NO = 999
REV_AT_EPOCH   = 10806
BSTAR          = .12856E-3
MEAN_MOTION_DOT = .238E-5
MEAN_MOTION_DDOT = 0

CCSDS_OMM_VERS = 2.0
CREATION_DATE  = 
ORIGINATOR     = 

OBJECT_NAME    = SL-14 R/B
OBJECT_ID      = 1985-069B
CENTER_NAME    = EARTH
REF_FRAME      = TEME
TIME_SYSTEM    = UTC
MEAN_ELEMENT_THEORY = SGP/SGP4

EPOCH          = 2026-01-24T02:43:15.180960
MEAN_MOTION    = 14.86378480
ECCENTRICITY   = .001833
INCLINATION    = 82.5246
RA_OF_ASC_NODE = 66.8614
ARG_OF_PERICENTER = 344.8503
MEAN_ANOMALY   = 15.2162

EPHEMERIS_TYPE = 0
CLASSIFICATION_TYPE = U
NORAD_CAT_ID   = 15945
ELEMENT_SET_NO = 999
REV_AT_EPOCH   = 16621
BSTAR          = .10302E-3
MEAN_MOTION_DOT = .935E-5
MEAN_MOTION_DDOT = 0

CCSDS_OMM_VERS = 2.0
CREATION_DATE  = 
ORIGINATOR     = 

OBJECT_NAME    = SL-16 R/B
OBJECT_ID      = 1985-097B
CENTER_NAME    = EARTH
REF_FRAME      = TEME
TIME_SYSTEM    = UTC
MEAN_ELEMENT_THEORY = SGP/SGP4

EPOCH          = 2026-01-23T00:38:10.470912
MEAN_MOTION    = 14.16590864
ECCENTRICITY   = .0008974
INCLINATION    = 71.0003
RA_OF_ASC_NODE = 236.6846
ARG_OF_PERICENTER = 313.5762
MEAN_ANOMALY   = 152.8358

EPHEMERIS_TYPE = 0
CLASSIFICATION_TYPE = U
NORAD_CAT_ID   = 16182
ELEMENT_SET_NO = 999
REV_AT_EPOCH   = 8076
BSTAR          = -.38269316E-4
MEAN_MOTION_DOT = -.124E-5
MEAN_MOTION_DDOT = 0

CCSDS_OMM_VERS = 2.0
CREATION_DATE  = 
ORIGINATOR     = 

OBJECT_NAME    = SL-14 R/B
OBJECT_ID      = 1986-006B
CENTER_NAME    = EARTH
REF_FRAME      = TEME
TIME_SYSTEM    = UTC
MEAN_ELEMENT_THEORY = SGP/SGP4

EPOCH          = 2026-01-23T11:54:41.209920
MEAN_MOTION    = 14.86740697
ECCENTRICITY   = .00781128
INCLINATION    = 82.5287
RA_OF_ASC_NODE = 302.2673
ARG_OF_PERICENTER = 63.0251
MEAN_ANOMALY   = 297.8915

EPHEMERIS_TYPE = 0
CLASSIFICATION_TYPE = U
NORAD_CAT_ID   = 16496
ELEMENT_SET_NO = 999
REV_AT_EPOCH   = 14249
BSTAR          = .14880979E-3
MEAN_MOTION_DOT = .1427E-4
MEAN_MOTION_DDOT = 0

CCSDS_OMM_VERS = 2.0
CREATION_DATE  = 
ORIGINATOR     = 

OBJECT_NAME    = COSMOS 1743
OBJECT_ID      = 1986-034A
CENTER_NAME    = EARTH
REF_FRAME      = TEME
TIME_SYSTEM    = UTC
MEAN_ELEMENT_THEORY = SGP/SGP4

EPOCH          = 2026-01-23T17:09:24.416352
MEAN_MOTION    = 15.55144084
ECCENTRICITY   = .00054176
INCLINATION    = 82.5349
RA_OF_ASC_NODE = 120.9030
ARG_OF_PERICENTER = 99.6150
MEAN_ANOMALY   = 260.5716

EPHEMERIS_TYPE = 0
CLASSIFICATION_TYPE = U
NORAD_CAT_ID   = 16719
ELEMENT_SET_NO = 999
REV_AT_EPOCH   = 17325
BSTAR          = .68200699E-3
MEAN_MOTION_DOT = .46196E-3
MEAN_MOTION_DDOT = 0

